<?xml version="1.0" encoding="UTF-8"?>
<ndm xmlns:xsi="http://www.w3.org/2001/XMLSchema-instance" xsi:noNamespaceSchemaLocation="https://sanaregistry.org/r/ndmxml_unqualified/ndmxml-2.0.0-master-2.0.xsd">
<omm id="CCSDS_OMM_VERS" version="2.0">
<header><CREATION_DATE/><ORIGINATOR/></header><body><segment><metadata><OBJECT_NAME>GLOBALSTAR M084 [+]</OBJECT_NAME><OBJECT_ID>2011-080A</OBJECT_ID><CENTER_NAME>EARTH</CENTER_NAME><REF_FRAME>TEME</REF_FRAME><TIME_SYSTEM>UTC</TIME_SYSTEM><MEAN_ELEMENT_THEORY>SGP4</MEAN_ELEMENT_THEORY></metadata><data><meanElements><EPOCH>2024-04-22T18:45:25.899264</EPOCH><MEAN_MOTION>12.62273712</MEAN_MOTION><ECCENTRICITY>.0000738</ECCENTRICITY><INCLINATION>52.0005</INCLINATION><RA_OF_ASC_NODE>248.3394</RA_OF_ASC_NODE><ARG_OF_PERICENTER>138.9335</ARG_OF_PERICENTER><MEAN_ANOMALY>9.1293</MEAN_ANOMALY></meanElements><tleParameters><EPHEMERIS_TYPE>0</EPHEMERIS_TYPE><CLASSIFICATION_TYPE>U</CLASSIFICATION_TYPE><NORAD_CAT_ID>38040</NORAD_CAT_ID><ELEMENT_SET_NO>999</ELEMENT_SET_NO><REV_AT_EPOCH>56957</REV_AT_EPOCH><BSTAR>.73707E-4</BSTAR><MEAN_MOTION_DOT>-.91E-6</MEAN_MOTION_DOT><MEAN_MOTION_DDOT>0</MEAN_MOTION_DDOT></tleParameters></data></segment></body></omm>
<omm id="CCSDS_OMM_VERS" version="2.0">
<header><CREATION_DATE/><ORIGINATOR/></header><body><segment><metadata><OBJECT_NAME>GLOBALSTAR M082 [+]</OBJECT_NAME><OBJECT_ID>2011-080C</OBJECT_ID><CENTER_NAME>EARTH</CENTER_NAME><REF_FRAME>TEME</REF_FRAME><TIME_SYSTEM>UTC</TIME_SYSTEM><MEAN_ELEMENT_THEORY>SGP4</MEAN_ELEMENT_THEORY></metadata><data><meanElements><EPOCH>2024-04-22T10:28:58.032192</EPOCH><MEAN_MOTION>12.62268344</MEAN_MOTION><ECCENTRICITY>.0000415</ECCENTRICITY><INCLINATION>52.0068</INCLINATION><RA_OF_ASC_NODE>206.2523</RA_OF_ASC_NODE><ARG_OF_PERICENTER>41.9458</ARG_OF_PERICENTER><MEAN_ANOMALY>37.2235</MEAN_ANOMALY></meanElements><tleParameters><EPHEMERIS_TYPE>0</EPHEMERIS_TYPE><CLASSIFICATION_TYPE>U</CLASSIFICATION_TYPE><NORAD_CAT_ID>38042</NORAD_CAT_ID><ELEMENT_SET_NO>999</ELEMENT_SET_NO><REV_AT_EPOCH>57036</REV_AT_EPOCH><BSTAR>.14294E-3</BSTAR><MEAN_MOTION_DOT>-.78E-6</MEAN_MOTION_DOT><MEAN_MOTION_DDOT>0</MEAN_MOTION_DDOT></tleParameters></data></segment></body></omm>
<omm id="CCSDS_OMM_VERS" version="2.0">
<header><CREATION_DATE/><ORIGINATOR/></header><body><segment><metadata><OBJECT_NAME>GLOBALSTAR M092 [+]</OBJECT_NAME><OBJECT_ID>2011-080D</OBJECT_ID><CENTER_NAME>EARTH</CENTER_NAME><REF_FRAME>TEME</REF_FRAME><TIME_SYSTEM>UTC</TIME_SYSTEM><MEAN_ELEMENT_THEORY>SGP4</MEAN_ELEMENT_THEORY></metadata><data><meanElements><EPOCH>2024-04-22T19:28:08.575104</EPOCH><MEAN_MOTION>12.62278981</MEAN_MOTION><ECCENTRICITY>.0000589</ECCENTRICITY><INCLINATION>52.0083</INCLINATION><RA_OF_ASC_NODE>295.4658</RA_OF_ASC_NODE><ARG_OF_PERICENTER>118.2652</ARG_OF_PERICENTER><MEAN_ANOMALY>344.1973</MEAN_ANOMALY></meanElements><tleParameters><EPHEMERIS_TYPE>0</EPHEMERIS_TYPE><CLASSIFICATION_TYPE>U</CLASSIFICATION_TYPE><NORAD_CAT_ID>38043</NORAD_CAT_ID><ELEMENT_SET_NO>999</ELEMENT_SET_NO><REV_AT_EPOCH>56886</REV_AT_EPOCH><BSTAR>.29589E-3</BSTAR><MEAN_MOTION_DOT>-.51E-6</MEAN_MOTION_DOT><MEAN_MOTION_DDOT>0</MEAN_MOTION_DDOT></tleParameters></data></segment></body></omm>
<omm id="CCSDS_OMM_VERS" version="2.0">
<header><CREATION_DATE/><ORIGINATOR/></header><body><segment><metadata><OBJECT_NAME>GLOBALSTAR M086 [+]</OBJECT_NAME><OBJECT_ID>2011-080F</OBJECT_ID><CENTER_NAME>EARTH</CENTER_NAME><REF_FRAME>TEME</REF_FRAME><TIME_SYSTEM>UTC</TIME_SYSTEM><MEAN_ELEMENT_THEORY>SGP4</MEAN_ELEMENT_THEORY></metadata><data><meanElements><EPOCH>2024-04-22T17:57:30.356928</EPOCH><MEAN_MOTION>12.62269886</MEAN_MOTION><ECCENTRICITY>.0001403</ECCENTRICITY><INCLINATION>51.9885</INCLINATION><RA_OF_ASC_NODE>200.1719</RA_OF_ASC_NODE><ARG_OF_PERICENTER>113.4355</ARG_OF_PERICENTER><MEAN_ANOMALY>62.6638</MEAN_ANOMALY></meanElements><tleParameters><EPHEMERIS_TYPE>0</EPHEMERIS_TYPE><CLASSIFICATION_TYPE>U</CLASSIFICATION_TYPE><NORAD_CAT_ID>38045</NORAD_CAT_ID><ELEMENT_SET_NO>999</ELEMENT_SET_NO><REV_AT_EPOCH>57046</REV_AT_EPOCH><BSTAR>.21266E-3</BSTAR><MEAN_MOTION_DOT>-.66E-6</MEAN_MOTION_DOT><MEAN_MOTION_DDOT>0</MEAN_MOTION_DDOT></tleParameters></data></segment></body></omm>
<omm id="CCSDS_OMM_VERS" version="2.0">
<header><CREATION_DATE/><ORIGINATOR/></header><body><segment><metadata><OBJECT_NAME>GLOBALSTAR M097 [+]</OBJECT_NAME><OBJECT_ID>2013-005A</OBJECT_ID><CENTER_NAME>EARTH</CENTER_NAME><REF_FRAME>TEME</REF_FRAME><TIME_SYSTEM>UTC</TIME_SYSTEM><MEAN_ELEMENT_THEORY>SGP4</MEAN_ELEMENT_THEORY></metadata><data><meanElements><EPOCH>2024-04-22T10:04:03.355392</EPOCH><MEAN_MOTION>12.62262550</MEAN_MOTION><ECCENTRICITY>.0000547</ECCENTRICITY><INCLINATION>52.0028</INCLINATION><RA_OF_ASC_NODE>115.2929</RA_OF_ASC_NODE><ARG_OF_PERICENTER>66.0904</ARG_OF_PERICENTER><MEAN_ANOMALY>294.0020</MEAN_ANOMALY></meanElements><tleParameters><EPHEMERIS_TYPE>0</EPHEMERIS_TYPE><CLASSIFICATION_TYPE>U</CLASSIFICATION_TYPE><NORAD_CAT_ID>39072</NORAD_CAT_ID><ELEMENT_SET_NO>999</ELEMENT_SET_NO><REV_AT_EPOCH>51767</REV_AT_EPOCH><BSTAR>.90128E-4</BSTAR><MEAN_MOTION_DOT>-.88E-6</MEAN_MOTION_DOT><MEAN_MOTION_DDOT>0</MEAN_MOTION_DDOT></tleParameters></data></segment></body></omm>
<omm id="CCSDS_OMM_VERS" version="2.0">
<header><CREATION_DATE/><ORIGINATOR/></header><body><segment><metadata><OBJECT_NAME>GLOBALSTAR M093 [+]</OBJECT_NAME><OBJECT_ID>2013-005B</OBJECT_ID><CENTER_NAME>EARTH</CENTER_NAME><REF_FRAME>TEME</REF_FRAME><TIME_SYSTEM>UTC</TIME_SYSTEM><MEAN_ELEMENT_THEORY>SGP4</MEAN_ELEMENT_THEORY></metadata><data><meanElements><EPOCH>2024-04-22T03:43:38.415072</EPOCH><MEAN_MOTION>12.62263438</MEAN_MOTION><ECCENTRICITY>.0000648</ECCENTRICITY><INCLINATION>51.9792</INCLINATION><RA_OF_ASC_NODE>110.0721</RA_OF_ASC_NODE><ARG_OF_PERICENTER>57.6410</ARG_OF_PERICENTER><MEAN_ANOMALY>302.4519</MEAN_ANOMALY></meanElements><tleParameters><EPHEMERIS_TYPE>0</EPHEMERIS_TYPE><CLASSIFICATION_TYPE>U</CLASSIFICATION_TYPE><NORAD_CAT_ID>39073</NORAD_CAT_ID><ELEMENT_SET_NO>999</ELEMENT_SET_NO><REV_AT_EPOCH>51771</REV_AT_EPOCH><BSTAR>.16952E-3</BSTAR><MEAN_MOTION_DOT>-.73E-6</MEAN_MOTION_DOT><MEAN_MOTION_DDOT>0</MEAN_MOTION_DDOT></tleParameters></data></segment></body></omm>

</ndm>
